{
  "type": "FeatureCollection",
  "features": [
    {
      "type": "Feature",
      "properties": {
        "norad_id": 38091,
        "name": "BEIDOU-2 G5 (C05)",
        "group": "gnss",
        "lat": 2.184501008143489,
        "lon": 115.08149452187037,
        "alt_km": 35838.02560116481,
        "timestamp": "2025-12-07T22:37:43.321342+00:00",
        "meta_object_name": "BEIDOU-2 G5 (C05)",
        "meta_object_id": "2012-008A",
        "meta_epoch": "2025-12-07T03:38:26.717568",
        "meta_mean_motion": 1.00273604,
        "meta_eccentricity": 0.00125154,
        "meta_inclination": 3.0949,
        "meta_ra_of_asc_node": 70.7251,
        "meta_arg_of_pericenter": 226.4508,
        "meta_mean_anomaly": 252.3414,
        "meta_ephemeris_type": 0,
        "meta_classification_type": "U",
        "meta_norad_cat_id": 38091,
        "meta_element_set_no": 999,
        "meta_rev_at_epoch": 5044,
        "meta_bstar": 0,
        "meta_mean_motion_dot": 6e-07,
        "meta_mean_motion_ddot": 0,
        "tle_line1": "1 38091U 12008A   25341.15169812  .00000060  00000+0  00000+0 0  9994",
        "tle_line2": "2 38091   3.0949  70.7251 0012515 226.4508 252.3414  1.00273604 50448"
      },
      "geometry": {
        "type": "Point",
        "coordinates": [
          115.08149452187037,
          2.184501008143489
        ]
      }
    },
    {
      "type": "Feature",
      "properties": {
        "norad_id": 38250,
        "name": "BEIDOU-2 M3 (C11)",
        "group": "gnss",
        "lat": -45.595705592857634,
        "lon": -92.38650740666256,
        "alt_km": 21472.25315425536,
        "timestamp": "2025-12-07T22:37:43.321354+00:00",
        "meta_object_name": "BEIDOU-2 M3 (C11)",
        "meta_object_id": "2012-018A",
        "meta_epoch": "2025-12-05T21:12:32.531040",
        "meta_mean_motion": 1.86229708,
        "meta_eccentricity": 0.00244284,
        "meta_inclination": 55.926,
        "meta_ra_of_asc_node": 311.388,
        "meta_arg_of_pericenter": 273.8805,
        "meta_mean_anomaly": 85.8231,
        "meta_ephemeris_type": 0,
        "meta_classification_type": "U",
        "meta_norad_cat_id": 38250,
        "meta_element_set_no": 999,
        "meta_rev_at_epoch": 9234,
        "meta_bstar": 0,
        "meta_mean_motion_dot": -7e-07,
        "meta_mean_motion_ddot": 0,
        "tle_line1": "1 38250U 12018A   25339.88370985 -.00000070  00000+0  00000+0 0  9996",
        "tle_line2": "2 38250  55.9260 311.3880 0024428 273.8805  85.8231  1.86229708 92342"
      },
      "geometry": {
        "type": "Point",
        "coordinates": [
          -92.38650740666256,
          -45.595705592857634
        ]
      }
    },
    {
      "type": "Feature",
      "properties": {
        "norad_id": 38251,
        "name": "BEIDOU-2 M4 (C12)",
        "group": "gnss",
        "lat": -11.472939942248058,
        "lon": -57.393030301159854,
        "alt_km": 21514.151816135254,
        "timestamp": "2025-12-07T22:37:43.321366+00:00",
        "meta_object_name": "BEIDOU-2 M4 (C12)",
        "meta_object_id": "2012-018B",
        "meta_epoch": "2025-12-06T21:21:07.920864",
        "meta_mean_motion": 1.86229417,
        "meta_eccentricity": 0.00155481,
        "meta_inclination": 55.8267,
        "meta_ra_of_asc_node": 310.5837,
        "meta_arg_of_pericenter": 277.2746,
        "meta_mean_anomaly": 82.5325,
        "meta_ephemeris_type": 0,
        "meta_classification_type": "U",
        "meta_norad_cat_id": 38251,
        "meta_element_set_no": 999,
        "meta_rev_at_epoch": 9236,
        "meta_bstar": 0,
        "meta_mean_motion_dot": -7e-07,
        "meta_mean_motion_ddot": 0,
        "tle_line1": "1 38251U 12018B   25340.88967501 -.00000070  00000+0  00000+0 0  9995",
        "tle_line2": "2 38251  55.8267 310.5837 0015548 277.2746  82.5325  1.86229417 92364"
      },
      "geometry": {
        "type": "Point",
        "coordinates": [
          -57.393030301159854,
          -11.472939942248058
        ]
      }
    },
    {
      "type": "Feature",
      "properties": {
        "norad_id": 38652,
        "name": "SES-5 (EGNOS/PRN 136)",
        "group": "gnss",
        "lat": 0.07068731743440979,
        "lon": 61.35773502565989,
        "alt_km": 35795.7616372816,
        "timestamp": "2025-12-07T22:37:43.321378+00:00",
        "meta_object_name": "SES-5 (EGNOS/PRN 136)",
        "meta_object_id": "2012-036A",
        "meta_epoch": "2025-12-06T15:24:07.748640",
        "meta_mean_motion": 1.00270241,
        "meta_eccentricity": 0.00022413,
        "meta_inclination": 0.0573,
        "meta_ra_of_asc_node": 305.2788,
        "meta_arg_of_pericenter": 306.2275,
        "meta_mean_anomaly": 60.1789,
        "meta_ephemeris_type": 0,
        "meta_classification_type": "U",
        "meta_norad_cat_id": 38652,
        "meta_element_set_no": 999,
        "meta_rev_at_epoch": 4253,
        "meta_bstar": 0,
        "meta_mean_motion_dot": 4e-07,
        "meta_mean_motion_ddot": 0,
        "tle_line1": "1 38652U 12036A   25340.64175635  .00000040  00000+0  00000+0 0  9999",
        "tle_line2": "2 38652   0.0573 305.2788 0002241 306.2275  60.1789  1.00270241 42530"
      },
      "geometry": {
        "type": "Point",
        "coordinates": [
          61.35773502565989,
          0.07068731743440979
        ]
      }
    },
    {
      "type": "Feature",
      "properties": {
        "norad_id": 38775,
        "name": "BEIDOU-2 M6 (C14)",
        "group": "gnss",
        "lat": 0.09704166929923294,
        "lon": -110.82817480168796,
        "alt_km": 21558.11216328398,
        "timestamp": "2025-12-07T22:37:43.321390+00:00",
        "meta_object_name": "BEIDOU-2 M6 (C14)",
        "meta_object_id": "2012-050B",
        "meta_epoch": "2025-12-06T01:31:40.709568",
        "meta_mean_motion": 1.86230702,
        "meta_eccentricity": 0.00109743,
        "meta_inclination": 56.3728,
        "meta_ra_of_asc_node": 69.289,
        "meta_arg_of_pericenter": 345.7667,
        "meta_mean_anomaly": 14.2153,
        "meta_ephemeris_type": 0,
        "meta_classification_type": "U",
        "meta_norad_cat_id": 38775,
        "meta_element_set_no": 999,
        "meta_rev_at_epoch": 8971,
        "meta_bstar": 0,
        "meta_mean_motion_dot": -4.7e-07,
        "meta_mean_motion_ddot": 0,
        "tle_line1": "1 38775U 12050B   25340.06366562 -.00000047  00000+0  00000+0 0  9996",
        "tle_line2": "2 38775  56.3728  69.2890 0010974 345.7667  14.2153  1.86230702 89716"
      },
      "geometry": {
        "type": "Point",
        "coordinates": [
          -110.82817480168796,
          0.09704166929923294
        ]
      }
    },
    {
      "type": "Feature",
      "properties": {
        "norad_id": 38779,
        "name": "GSAT-10 (GAGAN/PRN 128)",
        "group": "gnss",
        "lat": -0.008731117659104103,
        "lon": 139.36379176798545,
        "alt_km": 35776.500278739506,
        "timestamp": "2025-12-07T22:37:43.321402+00:00",
        "meta_object_name": "GSAT-10 (GAGAN/PRN 128)",
        "meta_object_id": "2012-051B",
        "meta_epoch": "2025-12-07T03:45:26.729568",
        "meta_mean_motion": 1.0027336,
        "meta_eccentricity": 0.00022166,
        "meta_inclination": 0.0223,
        "meta_ra_of_asc_node": 263.8442,
        "meta_arg_of_pericenter": 225.2769,
        "meta_mean_anomaly": 86.3959,
        "meta_ephemeris_type": 0,
        "meta_classification_type": "U",
        "meta_norad_cat_id": 38779,
        "meta_element_set_no": 999,
        "meta_rev_at_epoch": 4817,
        "meta_bstar": 0,
        "meta_mean_motion_dot": -1.6e-06,
        "meta_mean_motion_ddot": 0,
        "tle_line1": "1 38779U 12051B   25341.15655937 -.00000160  00000+0  00000+0 0  9995",
        "tle_line2": "2 38779   0.0223 263.8442 0002216 225.2769  86.3959  1.00273360 48178"
      },
      "geometry": {
        "type": "Point",
        "coordinates": [
          139.36379176798545,
          -0.008731117659104103
        ]
      }
    },
    {
      "type": "Feature",
      "properties": {
        "norad_id": 38833,
        "name": "GPS BIIF-3  (PRN 24)",
        "group": "gnss",
        "lat": 42.700602342500936,
        "lon": -165.56780188694032,
        "alt_km": 19713.422429557853,
        "timestamp": "2025-12-07T22:37:43.321414+00:00",
        "meta_object_name": "GPS BIIF-3  (PRN 24)",
        "meta_object_id": "2012-053A",
        "meta_epoch": "2025-12-06T20:50:20.740704",
        "meta_mean_motion": 2.0056489,
        "meta_eccentricity": 0.01756175,
        "meta_inclination": 53.5566,
        "meta_ra_of_asc_node": 151.4791,
        "meta_arg_of_pericenter": 63.9122,
        "meta_mean_anomaly": 297.8848,
        "meta_ephemeris_type": 0,
        "meta_classification_type": "U",
        "meta_norad_cat_id": 38833,
        "meta_element_set_no": 999,
        "meta_rev_at_epoch": 9558,
        "meta_bstar": 0,
        "meta_mean_motion_dot": 5.4e-07,
        "meta_mean_motion_ddot": 0,
        "tle_line1": "1 38833U 12053A   25340.86829561  .00000054  00000+0  00000+0 0  9992",
        "tle_line2": "2 38833  53.5566 151.4791 0175617  63.9122 297.8848  2.00564890 95582"
      },
      "geometry": {
        "type": "Point",
        "coordinates": [
          -165.56780188694032,
          42.700602342500936
        ]
      }
    }
  ]
}